[{"OBJECT_NAME":"STARLINK-31041","OBJECT_ID":"2023-192G","EPOCH":"2026-03-09T06:46:45.974784","MEAN_MOTION":15.30166647,"ECCENTRICITY":8.948e-5,"INCLINATION":53.1609,"RA_OF_ASC_NODE":64.5908,"ARG_OF_PERICENTER":55.0565,"MEAN_ANOMALY":305.052,"EPHEMERIS_TYPE":0,"CLASSIFICATION_TYPE":"U","NORAD_CAT_ID":58537,"ELEMENT_SET_NO":999,"REV_AT_EPOCH":12592,"BSTAR":-2.9186556e-5,"MEAN_MOTION_DOT":-1.222e-5,"MEAN_MOTION_DDOT":0},{"OBJECT_NAME":"TRANSPORTER-11 OBJECT A","OBJECT_ID":"2024-149A","EPOCH":"2026-03-09T17:54:54.302112","MEAN_MOTION":15.31141332,"ECCENTRICITY":0.00031096,"INCLINATION":97.378,"RA_OF_ASC_NODE":149.0949,"ARG_OF_PERICENTER":191.001,"MEAN_ANOMALY":169.1164,"EPHEMERIS_TYPE":0,"CLASSIFICATION_TYPE":"U","NORAD_CAT_ID":60468,"ELEMENT_SET_NO":999,"REV_AT_EPOCH":8683,"BSTAR":0.00036053677,"MEAN_MOTION_DOT":0.00010774,"MEAN_MOTION_DDOT":0}]
