STARLINK-31041          
1 58537U 23192G   26068.28247656 -.00001222  00000+0 -29187-4 0  9996
2 58537  53.1609  64.5908 0000894  55.0565 305.0520 15.30166647125926
TRANSPORTER-11 OBJECT A 
1 60468U 24149A   26068.74646182  .00010774  00000+0  36054-3 0  9993
2 60468  97.3780 149.0949 0003110 191.0010 169.1164 15.31141332 86830
